CCSDS_OMM_VERS = 2.0
CREATION_DATE  = 
ORIGINATOR     = 

OBJECT_NAME    = PROGRESS-MS 32
OBJECT_ID      = 2025-204A
CENTER_NAME    = EARTH
REF_FRAME      = TEME
TIME_SYSTEM    = UTC
MEAN_ELEMENT_THEORY = SGP/SGP4

EPOCH          = 2025-11-11T06:11:47.166720
MEAN_MOTION    = 15.49525392
ECCENTRICITY   = .00041335
INCLINATION    = 51.6338
RA_OF_ASC_NODE = 298.3179
ARG_OF_PERICENTER = 57.8977
MEAN_ANOMALY   = 302.2413

EPHEMERIS_TYPE = 0
CLASSIFICATION_TYPE = U
NORAD_CAT_ID   = 65586
ELEMENT_SET_NO = 999
REV_AT_EPOCH   = 27
BSTAR          = .2298429E-3
MEAN_MOTION_DOT = .12468E-3
MEAN_MOTION_DDOT = 0

CCSDS_OMM_VERS = 2.0
CREATION_DATE  = 
ORIGINATOR     = 

OBJECT_NAME    = CYGNUS NG-23
OBJECT_ID      = 2025-208A
CENTER_NAME    = EARTH
REF_FRAME      = TEME
TIME_SYSTEM    = UTC
MEAN_ELEMENT_THEORY = SGP/SGP4

EPOCH          = 2025-11-11T06:11:47.166720
MEAN_MOTION    = 15.49525392
ECCENTRICITY   = .00041335
INCLINATION    = 51.6338
RA_OF_ASC_NODE = 298.3179
ARG_OF_PERICENTER = 57.8977
MEAN_ANOMALY   = 302.2413

EPHEMERIS_TYPE = 0
CLASSIFICATION_TYPE = U
NORAD_CAT_ID   = 65616
ELEMENT_SET_NO = 999
REV_AT_EPOCH   = 22
BSTAR          = .2298429E-3
MEAN_MOTION_DOT = .12468E-3
MEAN_MOTION_DDOT = 0

CCSDS_OMM_VERS = 2.0
CREATION_DATE  = 
ORIGINATOR     = 

OBJECT_NAME    = DRAGONFLY
OBJECT_ID      = 1998-067XH
CENTER_NAME    = EARTH
REF_FRAME      = TEME
TIME_SYSTEM    = UTC
MEAN_ELEMENT_THEORY = SGP/SGP4

EPOCH          = 2025-11-11T03:54:49.261824
MEAN_MOTION    = 15.61883644
ECCENTRICITY   = .00045357
INCLINATION    = 51.6309
RA_OF_ASC_NODE = 296.1866
ARG_OF_PERICENTER = 108.8398
MEAN_ANOMALY   = 251.3089

EPHEMERIS_TYPE = 0
CLASSIFICATION_TYPE = U
NORAD_CAT_ID   = 65729
ELEMENT_SET_NO = 999
REV_AT_EPOCH   = 821
BSTAR          = .12885427E-2
MEAN_MOTION_DOT = .115355E-2
MEAN_MOTION_DDOT = 0

CCSDS_OMM_VERS = 2.0
CREATION_DATE  = 
ORIGINATOR     = 

OBJECT_NAME    = 1998-067XJ
OBJECT_ID      = 1998-067XJ
CENTER_NAME    = EARTH
REF_FRAME      = TEME
TIME_SYSTEM    = UTC
MEAN_ELEMENT_THEORY = SGP/SGP4

EPOCH          = 2025-11-11T04:46:03.291744
MEAN_MOTION    = 15.74261948
ECCENTRICITY   = .0011223
INCLINATION    = 51.6264
RA_OF_ASC_NODE = 294.1602
ARG_OF_PERICENTER = 94.1507
MEAN_ANOMALY   = 266.0775

EPHEMERIS_TYPE = 0
CLASSIFICATION_TYPE = U
NORAD_CAT_ID   = 65730
ELEMENT_SET_NO = 999
REV_AT_EPOCH   = 824
BSTAR          = .29608389E-2
MEAN_MOTION_DOT = .460892E-2
MEAN_MOTION_DDOT = 0

CCSDS_OMM_VERS = 2.0
CREATION_DATE  = 
ORIGINATOR     = 

OBJECT_NAME    = 1998-067XK
OBJECT_ID      = 1998-067XK
CENTER_NAME    = EARTH
REF_FRAME      = TEME
TIME_SYSTEM    = UTC
MEAN_ELEMENT_THEORY = SGP/SGP4

EPOCH          = 2025-11-11T04:50:25.173600
MEAN_MOTION    = 15.59259368
ECCENTRICITY   = .00054747
INCLINATION    = 51.6321
RA_OF_ASC_NODE = 296.4456
ARG_OF_PERICENTER = 86.3127
MEAN_ANOMALY   = 273.8492

EPHEMERIS_TYPE = 0
CLASSIFICATION_TYPE = U
NORAD_CAT_ID   = 65731
ELEMENT_SET_NO = 999
REV_AT_EPOCH   = 821
BSTAR          = .11402489E-2
MEAN_MOTION_DOT = .9196E-3
MEAN_MOTION_DDOT = 0

CCSDS_OMM_VERS = 2.0
CREATION_DATE  = 
ORIGINATOR     = 

OBJECT_NAME    = RSP-03
OBJECT_ID      = 1998-067XL
CENTER_NAME    = EARTH
REF_FRAME      = TEME
TIME_SYSTEM    = UTC
MEAN_ELEMENT_THEORY = SGP/SGP4

EPOCH          = 2025-11-11T05:55:31.374624
MEAN_MOTION    = 15.60547116
ECCENTRICITY   = .00062642
INCLINATION    = 51.6310
RA_OF_ASC_NODE = 295.9961
ARG_OF_PERICENTER = 87.0785
MEAN_ANOMALY   = 273.0925

EPHEMERIS_TYPE = 0
CLASSIFICATION_TYPE = U
NORAD_CAT_ID   = 65732
ELEMENT_SET_NO = 999
REV_AT_EPOCH   = 823
BSTAR          = .13253672E-2
MEAN_MOTION_DOT = .112693E-2
MEAN_MOTION_DDOT = 0

CCSDS_OMM_VERS = 2.0
CREATION_DATE  = 
ORIGINATOR     = 

OBJECT_NAME    = GHS-01
OBJECT_ID      = 1998-067XM
CENTER_NAME    = EARTH
REF_FRAME      = TEME
TIME_SYSTEM    = UTC
MEAN_ELEMENT_THEORY = SGP/SGP4

EPOCH          = 2025-11-11T05:07:45.913440
MEAN_MOTION    = 15.62879303
ECCENTRICITY   = .00050439
INCLINATION    = 51.6315
RA_OF_ASC_NODE = 295.7771
ARG_OF_PERICENTER = 106.2175
MEAN_ANOMALY   = 253.9374

EPHEMERIS_TYPE = 0
CLASSIFICATION_TYPE = U
NORAD_CAT_ID   = 65733
ELEMENT_SET_NO = 999
REV_AT_EPOCH   = 823
BSTAR          = .1642168E-2
MEAN_MOTION_DOT = .153732E-2
MEAN_MOTION_DDOT = 0

CCSDS_OMM_VERS = 2.0
CREATION_DATE  = 
ORIGINATOR     = 

OBJECT_NAME    = YOTSUBA-KULOVER
OBJECT_ID      = 1998-067XN
CENTER_NAME    = EARTH
REF_FRAME      = TEME
TIME_SYSTEM    = UTC
MEAN_ELEMENT_THEORY = SGP/SGP4

EPOCH          = 2025-11-11T06:18:05.923584
MEAN_MOTION    = 15.54527588
ECCENTRICITY   = .00026433
INCLINATION    = 51.6323
RA_OF_ASC_NODE = 297.5979
ARG_OF_PERICENTER = 43.3108
MEAN_ANOMALY   = 316.8090

EPHEMERIS_TYPE = 0
CLASSIFICATION_TYPE = U
NORAD_CAT_ID   = 65941
ELEMENT_SET_NO = 999
REV_AT_EPOCH   = 495
BSTAR          = .10687082E-2
MEAN_MOTION_DOT = .7196E-3
MEAN_MOTION_DDOT = 0

CCSDS_OMM_VERS = 2.0
CREATION_DATE  = 
ORIGINATOR     = 

OBJECT_NAME    = BOTAN
OBJECT_ID      = 1998-067XP
CENTER_NAME    = EARTH
REF_FRAME      = TEME
TIME_SYSTEM    = UTC
MEAN_ELEMENT_THEORY = SGP/SGP4

EPOCH          = 2025-11-11T06:00:00.873504
MEAN_MOTION    = 15.55818540
ECCENTRICITY   = .00048203
INCLINATION    = 51.6318
RA_OF_ASC_NODE = 297.5160
ARG_OF_PERICENTER = 55.3757
MEAN_ANOMALY   = 304.7688

EPHEMERIS_TYPE = 0
CLASSIFICATION_TYPE = U
NORAD_CAT_ID   = 65942
ELEMENT_SET_NO = 999
REV_AT_EPOCH   = 495
BSTAR          = .14362219E-2
MEAN_MOTION_DOT = .102013E-2
MEAN_MOTION_DDOT = 0

CCSDS_OMM_VERS = 2.0
CREATION_DATE  = 
ORIGINATOR     = 

OBJECT_NAME    = E-KAGAKU-1
OBJECT_ID      = 1998-067XQ
CENTER_NAME    = EARTH
REF_FRAME      = TEME
TIME_SYSTEM    = UTC
MEAN_ELEMENT_THEORY = SGP/SGP4

EPOCH          = 2025-11-11T06:17:28.156416
MEAN_MOTION    = 15.54525386
ECCENTRICITY   = .00043833
INCLINATION    = 51.6325
RA_OF_ASC_NODE = 297.5964
ARG_OF_PERICENTER = 41.9455
MEAN_ANOMALY   = 318.1871

EPHEMERIS_TYPE = 0
CLASSIFICATION_TYPE = U
NORAD_CAT_ID   = 65943
ELEMENT_SET_NO = 999
REV_AT_EPOCH   = 495
BSTAR          = .10762378E-2
MEAN_MOTION_DOT = .72485E-3
MEAN_MOTION_DDOT = 0

CCSDS_OMM_VERS = 2.0
CREATION_DATE  = 
ORIGINATOR     = 

OBJECT_NAME    = HRC MONOBLOCK CAMERA
OBJECT_ID      = 1998-067XR
CENTER_NAME    = EARTH
REF_FRAME      = TEME
TIME_SYSTEM    = UTC
MEAN_ELEMENT_THEORY = SGP/SGP4

EPOCH          = 2025-11-11T05:51:00.319680
MEAN_MOTION    = 15.51336854
ECCENTRICITY   = .00047498
INCLINATION    = 51.6316
RA_OF_ASC_NODE = 298.2210
ARG_OF_PERICENTER = 54.5840
MEAN_ANOMALY   = 305.5592

EPHEMERIS_TYPE = 0
CLASSIFICATION_TYPE = U
NORAD_CAT_ID   = 66052
ELEMENT_SET_NO = 999
REV_AT_EPOCH   = 394
BSTAR          = .73586102E-3
MEAN_MOTION_DOT = .43835E-3
MEAN_MOTION_DDOT = 0

CCSDS_OMM_VERS = 2.0
CREATION_DATE  = 
ORIGINATOR     = 

OBJECT_NAME    = HTV-X1
OBJECT_ID      = 2025-241A
CENTER_NAME    = EARTH
REF_FRAME      = TEME
TIME_SYSTEM    = UTC
MEAN_ELEMENT_THEORY = SGP/SGP4

EPOCH          = 2025-11-11T06:11:47.166720
MEAN_MOTION    = 15.49525392
ECCENTRICITY   = .00041335
INCLINATION    = 51.6338
RA_OF_ASC_NODE = 298.3179
ARG_OF_PERICENTER = 57.8977
MEAN_ANOMALY   = 302.2413

EPHEMERIS_TYPE = 0
CLASSIFICATION_TYPE = U
NORAD_CAT_ID   = 66174
ELEMENT_SET_NO = 999
REV_AT_EPOCH   = 145
BSTAR          = .2298429E-3
MEAN_MOTION_DOT = .12468E-3
MEAN_MOTION_DDOT = 0

