PROGRESS-MS 32          
1 65586U 25204A   25315.25818480  .00012468  00000+0  22984-3 0  9993
2 65586  51.6338 298.3179 0004133  57.8977 302.2413 15.49525392   270
CYGNUS NG-23            
1 65616U 25208A   25315.25818480  .00012468  00000+0  22984-3 0  9991
2 65616  51.6338 298.3179 0004133  57.8977 302.2413 15.49525392   229
DRAGONFLY               
1 65729U 98067XH  25315.16307016  .00115355  00000+0  12885-2 0  9994
2 65729  51.6309 296.1866 0004535 108.8398 251.3089 15.61883644  8212
1998-067XJ              
1 65730U 98067XJ  25315.19864921  .00460892  00000+0  29608-2 0  9992
2 65730  51.6264 294.1602 0011223  94.1507 266.0775 15.74261948  8240
1998-067XK              
1 65731U 98067XK  25315.20168025  .00091960  00000+0  11402-2 0  9996
2 65731  51.6321 296.4456 0005474  86.3127 273.8492 15.59259368  8214
RSP-03                  
1 65732U 98067XL  25315.24689091  .00112693  00000+0  13254-2 0  9996
2 65732  51.6310 295.9961 0006264  87.0785 273.0925 15.60547116  8232
GHS-01                  
1 65733U 98067XM  25315.21372585  .00153732  00000+0  16422-2 0  9990
2 65733  51.6315 295.7771 0005043 106.2175 253.9374 15.62879303  8239
YOTSUBA-KULOVER         
1 65941U 98067XN  25315.26256856  .00071960  00000+0  10687-2 0  9997
2 65941  51.6323 297.5979 0002643  43.3108 316.8090 15.54527588  4954
BOTAN                   
1 65942U 98067XP  25315.25001011  .00102013  00000+0  14362-2 0  9996
2 65942  51.6318 297.5160 0004820  55.3757 304.7688 15.55818540  4954
E-KAGAKU-1              
1 65943U 98067XQ  25315.26213144  .00072485  00000+0  10762-2 0  9999
2 65943  51.6325 297.5964 0004383  41.9455 318.1871 15.54525386  4950
HRC MONOBLOCK CAMERA    
1 66052U 98067XR  25315.24375370  .00043835  00000+0  73586-3 0  9990
2 66052  51.6316 298.2210 0004749  54.5840 305.5592 15.51336854  3943
HTV-X1                  
1 66174U 25241A   25315.25818480  .00012468  00000+0  22984-3 0  9998
2 66174  51.6338 298.3179 0004133  57.8977 302.2413 15.49525392  1455
